QIANFAN-73              
1 63159U 25046A   25364.23270475  .00000224  00000+0  32782-3 0  9993
2 63159  88.9777 318.2128 0016991  73.9302 286.3719 13.50982243 49777
QIANFAN-74              
1 63160U 25046B   25364.21611215  .00000219  00000+0  32050-3 0  9996
2 63160  88.9778 318.1033 0001991  72.0065 288.1303 13.50979113 49832
QIANFAN-75              
1 63161U 25046C   25364.27742470  .00000262  00000+0  38673-3 0  9996
2 63161  88.9779 318.3308 0018152  76.2898 284.0273 13.50984933 49712
QIANFAN-76              
1 63162U 25046D   25364.27407302  .00000231  00000+0  33833-3 0  9998
2 63162  88.9778 318.3117 0015689  76.8124 283.4777 13.50984587 49728
QIANFAN-77              
1 63163U 25046E   25364.24556637  .00000683  00000+0  48778-3 0  9997
2 63163  88.9779 316.1782 0016330  32.4127 327.8049 13.96103744 50892
QIANFAN-78              
1 63164U 25046F   25364.24090554  .00000245  00000+0  36024-3 0  9994
2 63164  88.9777 318.1790 0017069  78.9218 281.3852 13.50982861 49796
QIANFAN-79              
1 63165U 25046G   25364.26954404  .00000260  00000+0  38321-3 0  9999
2 63165  88.9781 318.2842 0016759  77.3090 282.9933 13.50984765 49744
QIANFAN-80              
1 63166U 25046H   25364.21202583  .00000252  00000+0  37102-3 0  9996
2 63166  88.9779 317.9966 0015729  81.1278 279.1654 13.50982694 49895
